[{"OBJECT_NAME":"SDS-4","OBJECT_ID":"2012-025C","EPOCH":"2026-03-09T22:00:42.096096","MEAN_MOTION":14.75631591,"ECCENTRICITY":0.00056029,"INCLINATION":98.1333,"RA_OF_ASC_NODE":164.2362,"ARG_OF_PERICENTER":252.4969,"MEAN_ANOMALY":107.5627,"EPHEMERIS_TYPE":0,"CLASSIFICATION_TYPE":"U","NORAD_CAT_ID":38339,"ELEMENT_SET_NO":999,"REV_AT_EPOCH":74134,"BSTAR":0.00023374761,"MEAN_MOTION_DOT":1.543e-5,"MEAN_MOTION_DDOT":0},{"OBJECT_NAME":"FENGYUN 1C DEB","OBJECT_ID":"1999-025ESZ","EPOCH":"2026-03-09T06:55:18.758784","MEAN_MOTION":14.18552494,"ECCENTRICITY":0.0265717,"INCLINATION":98.0483,"RA_OF_ASC_NODE":94.9001,"ARG_OF_PERICENTER":121.3246,"MEAN_ANOMALY":241.4236,"EPHEMERIS_TYPE":0,"CLASSIFICATION_TYPE":"U","NORAD_CAT_ID":38514,"ELEMENT_SET_NO":999,"REV_AT_EPOCH":89222,"BSTAR":0.0020350981,"MEAN_MOTION_DOT":5.946e-5,"MEAN_MOTION_DDOT":0}]
